STARLINK-3935           
1 52549U 22051S   26068.54448739  .00000612  00000+0  56562-4 0  9997
2 52549  53.2154 129.7777 0001278  97.6926 262.4211 15.08833176211424
YAM-8                   
1 63254U 25052AW  26068.73092778  .00007810  00000+0  47267-3 0  9993
2 63254  97.7023 329.5345 0002369 152.6796 207.4558 15.10898938 54245
