[{"OBJECT_NAME":"STARLINK-3935","OBJECT_ID":"2022-051S","EPOCH":"2026-03-09T13:04:03.710496","MEAN_MOTION":15.08833176,"ECCENTRICITY":0.00012782,"INCLINATION":53.2154,"RA_OF_ASC_NODE":129.7777,"ARG_OF_PERICENTER":97.6926,"MEAN_ANOMALY":262.4211,"EPHEMERIS_TYPE":0,"CLASSIFICATION_TYPE":"U","NORAD_CAT_ID":52549,"ELEMENT_SET_NO":999,"REV_AT_EPOCH":21142,"BSTAR":5.6562492e-5,"MEAN_MOTION_DOT":6.12e-6,"MEAN_MOTION_DDOT":0},{"OBJECT_NAME":"YAM-8","OBJECT_ID":"2025-052AW","EPOCH":"2026-03-09T17:32:32.161056","MEAN_MOTION":15.10898939,"ECCENTRICITY":0.00023693,"INCLINATION":97.7023,"RA_OF_ASC_NODE":329.5345,"ARG_OF_PERICENTER":152.6796,"MEAN_ANOMALY":207.4558,"EPHEMERIS_TYPE":0,"CLASSIFICATION_TYPE":"U","NORAD_CAT_ID":63254,"ELEMENT_SET_NO":999,"REV_AT_EPOCH":5424,"BSTAR":0.00047267461,"MEAN_MOTION_DOT":7.81e-5,"MEAN_MOTION_DDOT":0}]
